{
  "type": "FeatureCollection",
  "features": [
    {
      "type": "Feature",
      "properties": {
        "norad_id": 67126,
        "name": "STARLINK-36223",
        "group": "last-30-days",
        "lat": 2.9841036228986093,
        "lon": -128.60022310118484,
        "alt_km": 339.9138080453995,
        "timestamp": "2025-12-27T03:58:42.935303+00:00",
        "meta_object_name": "STARLINK-36223",
        "meta_object_id": "2025-299AA",
        "meta_epoch": "2025-12-26T20:00:01.999008",
        "meta_mean_motion": 15.77831288,
        "meta_eccentricity": 0.0001596,
        "meta_inclination": 42.9981,
        "meta_ra_of_asc_node": 230.2162,
        "meta_arg_of_pericenter": 259.4837,
        "meta_mean_anomaly": 15.2483,
        "meta_ephemeris_type": 0,
        "meta_classification_type": "U",
        "meta_norad_cat_id": 67126,
        "meta_element_set_no": 999,
        "meta_rev_at_epoch": 307,
        "meta_bstar": -0.011849,
        "meta_mean_motion_dot": -0.01807516,
        "meta_mean_motion_ddot": 0,
        "tle_line1": "1 67126U 25299AA  25360.83335647 -.01807516  00000+0 -11849-1 0  9997",
        "tle_line2": "2 67126  42.9981 230.2162 0001596 259.4837  15.2483 15.77831288  3075"
      },
      "geometry": {
        "type": "Point",
        "coordinates": [
          -128.60022310118484,
          2.9841036228986093
        ]
      }
    },
    {
      "type": "Feature",
      "properties": {
        "norad_id": 67127,
        "name": "STARLINK-36164",
        "group": "last-30-days",
        "lat": 4.171670104416848,
        "lon": -127.32216089259393,
        "alt_km": 339.72564282163967,
        "timestamp": "2025-12-27T03:58:42.935313+00:00",
        "meta_object_name": "STARLINK-36164",
        "meta_object_id": "2025-299AB",
        "meta_epoch": "2025-12-26T20:00:01.999008",
        "meta_mean_motion": 15.77840516,
        "meta_eccentricity": 0.0001597,
        "meta_inclination": 42.998,
        "meta_ra_of_asc_node": 230.2118,
        "meta_arg_of_pericenter": 261.22,
        "meta_mean_anomaly": 15.2478,
        "meta_ephemeris_type": 0,
        "meta_classification_type": "U",
        "meta_norad_cat_id": 67127,
        "meta_element_set_no": 999,
        "meta_rev_at_epoch": 307,
        "meta_bstar": -0.011864,
        "meta_mean_motion_dot": -0.01810229,
        "meta_mean_motion_ddot": 0,
        "tle_line1": "1 67127U 25299AB  25360.83335647 -.01810229  00000+0 -11864-1 0  9990",
        "tle_line2": "2 67127  42.9980 230.2118 0001597 261.2200  15.2478 15.77840516  3070"
      },
      "geometry": {
        "type": "Point",
        "coordinates": [
          -127.32216089259393,
          4.171670104416848
        ]
      }
    },
    {
      "type": "Feature",
      "properties": {
        "norad_id": 67128,
        "name": "STARLINK-35685",
        "group": "last-30-days",
        "lat": 7.218551531959086,
        "lon": -124.01093675147438,
        "alt_km": 339.23504267969656,
        "timestamp": "2025-12-27T03:58:42.935322+00:00",
        "meta_object_name": "STARLINK-35685",
        "meta_object_id": "2025-299AC",
        "meta_epoch": "2025-12-26T20:00:01.999008",
        "meta_mean_motion": 15.77813242,
        "meta_eccentricity": 0.0001473,
        "meta_inclination": 42.9979,
        "meta_ra_of_asc_node": 230.2,
        "meta_arg_of_pericenter": 270.1395,
        "meta_mean_anomaly": 10.8567,
        "meta_ephemeris_type": 0,
        "meta_classification_type": "U",
        "meta_norad_cat_id": 67128,
        "meta_element_set_no": 999,
        "meta_rev_at_epoch": 307,
        "meta_bstar": -0.011879,
        "meta_mean_motion_dot": -0.01810171,
        "meta_mean_motion_ddot": 0,
        "tle_line1": "1 67128U 25299AC  25360.83335647 -.01810171  00000+0 -11879-1 0  9993",
        "tle_line2": "2 67128  42.9979 230.2000 0001473 270.1395  10.8567 15.77813242  3072"
      },
      "geometry": {
        "type": "Point",
        "coordinates": [
          -124.01093675147438,
          7.218551531959086
        ]
      }
    },
    {
      "type": "Feature",
      "properties": {
        "norad_id": 67129,
        "name": "STARLINK-36214",
        "group": "last-30-days",
        "lat": 5.493657895458599,
        "lon": -125.89212958629477,
        "alt_km": 339.6103699158457,
        "timestamp": "2025-12-27T03:58:42.935330+00:00",
        "meta_object_name": "STARLINK-36214",
        "meta_object_id": "2025-299AD",
        "meta_epoch": "2025-12-26T20:00:01.999008",
        "meta_mean_motion": 15.77839697,
        "meta_eccentricity": 0.0001655,
        "meta_inclination": 42.9982,
        "meta_ra_of_asc_node": 230.2069,
        "meta_arg_of_pericenter": 260.8484,
        "meta_mean_anomaly": 17.5677,
        "meta_ephemeris_type": 0,
        "meta_classification_type": "U",
        "meta_norad_cat_id": 67129,
        "meta_element_set_no": 999,
        "meta_rev_at_epoch": 307,
        "meta_bstar": -0.01188,
        "meta_mean_motion_dot": -0.01812321,
        "meta_mean_motion_ddot": 0,
        "tle_line1": "1 67129U 25299AD  25360.83335647 -.01812321  00000+0 -11880-1 0  9995",
        "tle_line2": "2 67129  42.9982 230.2069 0001655 260.8484  17.5677 15.77839697  3077"
      },
      "geometry": {
        "type": "Point",
        "coordinates": [
          -125.89212958629477,
          5.493657895458599
        ]
      }
    },
    {
      "type": "Feature",
      "properties": {
        "norad_id": 67130,
        "name": "STARLINK-36194",
        "group": "last-30-days",
        "lat": 9.982021574214766,
        "lon": -120.9436266657793,
        "alt_km": 339.365748090926,
        "timestamp": "2025-12-27T03:58:42.935339+00:00",
        "meta_object_name": "STARLINK-36194",
        "meta_object_id": "2025-299AE",
        "meta_epoch": "2025-12-26T20:00:01.999008",
        "meta_mean_motion": 15.77729261,
        "meta_eccentricity": 0.0001349,
        "meta_inclination": 42.9979,
        "meta_ra_of_asc_node": 230.1915,
        "meta_arg_of_pericenter": 260.609,
        "meta_mean_anomaly": 24.6038,
        "meta_ephemeris_type": 0,
        "meta_classification_type": "U",
        "meta_norad_cat_id": 67130,
        "meta_element_set_no": 999,
        "meta_rev_at_epoch": 307,
        "meta_bstar": -0.012018,
        "meta_mean_motion_dot": -0.01822463,
        "meta_mean_motion_ddot": 0,
        "tle_line1": "1 67130U 25299AE  25360.83335647 -.01822463  00000+0 -12018-1 0  9999",
        "tle_line2": "2 67130  42.9979 230.1915 0001349 260.6090  24.6038 15.77729261  3070"
      },
      "geometry": {
        "type": "Point",
        "coordinates": [
          -120.9436266657793,
          9.982021574214766
        ]
      }
    },
    {
      "type": "Feature",
      "properties": {
        "norad_id": 67131,
        "name": "ZIYUAN 3-04 (ZY 3-04)",
        "group": "last-30-days",
        "lat": 33.24401845762006,
        "lon": 70.25255709819358,
        "alt_km": 501.0721814724884,
        "timestamp": "2025-12-27T03:58:42.935349+00:00",
        "meta_object_name": "ZIYUAN 3-04 (ZY 3-04)",
        "meta_object_id": "2025-300A",
        "meta_epoch": "2025-12-21T18:22:34.187808",
        "meta_mean_motion": 15.21179479,
        "meta_eccentricity": 0.00027623,
        "meta_inclination": 97.4922,
        "meta_ra_of_asc_node": 69.8294,
        "meta_arg_of_pericenter": 167.6924,
        "meta_mean_anomaly": 192.438,
        "meta_ephemeris_type": 0,
        "meta_classification_type": "U",
        "meta_norad_cat_id": 67131,
        "meta_element_set_no": 999,
        "meta_rev_at_epoch": 86,
        "meta_bstar": 6.5769783e-05,
        "meta_mean_motion_dot": 1.396e-05,
        "meta_mean_motion_ddot": 0,
        "tle_line1": "1 67131U 25300A   25355.76567347  .00001396  00000+0  65770-4 0  9990",
        "tle_line2": "2 67131  97.4922  69.8294 0002762 167.6924 192.4380 15.21179479   860"
      },
      "geometry": {
        "type": "Point",
        "coordinates": [
          70.25255709819358,
          33.24401845762006
        ]
      }
    },
    {
      "type": "Feature",
      "properties": {
        "norad_id": 67132,
        "name": "CZ-4B R/B",
        "group": "last-30-days",
        "lat": -73.07048646865275,
        "lon": -129.7956619914382,
        "alt_km": 365.6650114742688,
        "timestamp": "2025-12-27T03:58:42.935358+00:00",
        "meta_object_name": "CZ-4B R/B",
        "meta_object_id": "2025-300B",
        "meta_epoch": "2025-12-18T16:13:04.609056",
        "meta_mean_motion": 15.63831828,
        "meta_eccentricity": 0.01741973,
        "meta_inclination": 97.5563,
        "meta_ra_of_asc_node": 66.966,
        "meta_arg_of_pericenter": 9.3582,
        "meta_mean_anomaly": 351.0851,
        "meta_ephemeris_type": 0,
        "meta_classification_type": "U",
        "meta_norad_cat_id": 67132,
        "meta_element_set_no": 999,
        "meta_rev_at_epoch": 40,
        "meta_bstar": 0.00019566238,
        "meta_mean_motion_dot": 0.00040543,
        "meta_mean_motion_ddot": 2.652968e-06,
        "tle_line1": "1 67132U 25300B   25352.67574779  .00040543  26530-5  19566-3 0  9995",
        "tle_line2": "2 67132  97.5563  66.9660 0174197   9.3582 351.0851 15.63831828   407"
      },
      "geometry": {
        "type": "Point",
        "coordinates": [
          -129.7956619914382,
          -73.07048646865275
        ]
      }
    }
  ]
}